ONEWEB-0578             
1 56067U 23043X   25169.68512977  .00000040  00000+0  64928-4 0  9990
2 56067  87.9262 316.4762 0001835  93.9499 266.1844 13.21827088110215
ONEWEB-0579             
1 56068U 23043Y   25169.44857900  .00000065  00000+0  12668-3 0  9993
2 56068  87.9258 316.5091 0001908 106.1366 253.9978 13.21826300110193
ONEWEB-0581             
1 56069U 23043Z   25169.65679553  .00000062  00000+0  12889-3 0  9995
2 56069  87.9041 301.2480 0001518 109.4257 250.7038 13.16593116111125
ONEWEB-0609             
1 56070U 23043AA  25169.70578178 -.00000055  00000+0 -17933-3 0  9993
2 56070  87.9050 331.6753 0001937  95.1111 265.0241 13.15547408108642
ONEWEB-0613             
1 56071U 23043AB  25169.70102999 -.00000101  00000+0 -30177-3 0  9995
2 56071  87.9059 331.6877 0001883 101.9629 258.1713 13.15547590108648
ONEWEB-0630             
1 56072U 23043AC  25169.69627385  .00000025  00000+0  32677-4 0  9996
2 56072  87.9056 331.6663 0002042 102.3413 257.7946 13.15547629108638
ONEWEB-0632             
1 56073U 23043AD  25169.69152808  .00000102  00000+0  23634-3 0  9998
2 56073  87.9055 331.6872 0001663 100.2252 259.9066 13.15548486108635
ONEWEB-0633             
1 56074U 23043AE  25169.68518729  .00000111  00000+0  25955-3 0  9994
2 56074  87.9052 331.6562 0002225 101.0636 259.0744 13.15548869108616
